satname,norad_id,inclination_deg,eccentricity,mean_motion_rev_per_day,perigee_km,apogee_km,l1,l2
STARLINK-1302,45375,53.0537,0.0001318,15.06418795,546.2412012213608,548.0667079169843,1 45375U 20019R   25302.67532127  .00006349  00000+0  44449-3 0  9990,2 45375  53.0537  34.7647 0001318  81.5775 278.5363 15.06418795309985
STARLINK-1304,45376,53.0546,0.0001992,15.0640227,545.8250726770902,548.5841287708181,1 45376U 20019S   25302.95914786  .00004543  00000+0  32367-3 0  9997,2 45376  53.0546  33.4882 0001992  85.3797 274.7419 15.06402270310025
STARLINK-1305,45377,53.0545,0.0001163,15.31227515,471.35212233984294,472.94549881938383,1 45377U 20019T   25302.66472857  .00015912  00000+0  53110-3 0  9995,2 45377  53.0545  32.8293 0001163  77.9963 282.1168 15.31227515310014
STARLINK-1319,45379,53.0538,0.0001166,15.18894507,508.37737903910147,509.9835014661676,1 45379U 20019V   25303.91668980  .01983902  00000+0  84661-1 0  9997,2 45379  53.0538  28.9166 0001166  88.8906 110.6609 15.18894507  5847
STARLINK-1266,45383,53.0551,0.0001404,15.06411236,546.2048073279566,548.1494355332543,1 45383U 20019Z   25302.91307291  .00003217  00000+0  23469-3 0  9998,2 45383  53.0551  13.6993 0001404  98.6891 261.4257 15.06411236310296
STARLINK-1267,45384,53.0553,0.0001532,15.06410232,546.1192399146476,548.2411571042703,1 45384U 20019AA  25302.89840780  .00003704  00000+0  26735-3 0  9991,2 45384  53.0553  14.4205 0001532  87.1165 272.9999 15.06410232310287
STARLINK-1272,45386,53.055,0.0001549,15.33288908,464.9474758449369,467.06779185250343,1 45386U 20019AC  25303.25634836  .00068827  00000+0  21019-2 0  9993,2 45386  53.0550  10.2557 0001549  43.0331 317.0791 15.33288908310378
STARLINK-1274,45387,53.0386,0.0003288,15.28771645,477.22841468559454,481.7379857292499,1 45387U 20019AD  25302.88951097  .00023096  00000+0  82467-3 0  9997,2 45387  53.0386 359.3137 0003288 241.3877 118.6791 15.28771645310494
STARLINK-1280,45388,53.0542,0.0001736,15.38983873,447.9276208363326,450.29804197779777,1 45388U 20019AE  25303.91668980  .00050633  00000+0  12940-2 0  9994,2 45388  53.0542  26.6883 0001736  30.0700 312.5181 15.38983873  5842
STARLINK-1283,45389,53.0556,0.0002725,15.29871838,474.32727165200504,478.0628826340471,1 45389U 20019AF  25302.50525243  .00048454  00000+0  16539-2 0  9999,2 45389  53.0556  12.3136 0002725  22.8171 337.2949 15.29871838310281
STARLINK-1284,45390,53.0551,0.0001473,15.06407129,546.1696080420234,548.2098092903962,1 45390U 20019AG  25302.91675491  .00001976  00000+0  15148-3 0  9991,2 45390  53.0551  13.6823 0001473  97.1368 262.9788 15.06407129310296
STARLINK-1292,45394,53.0438,0.0007719,15.9426651,285.21155014004216,295.5063742064458,1 45394U 20019AL  25303.91668980  .00463913  96810-4  12172-2 0  9996,2 45394  53.0438 319.6901 0007719  20.6066 101.1353 15.94266510  6046
STARLINK-1297,45395,53.0555,0.0001428,15.06423392,546.1509362186343,548.1287952914954,1 45395U 20019AM  25302.48918716  .00010663  00000+0  73318-3 0  9994,2 45395  53.0555  15.6011 0001428  91.4415 268.6738 15.06423392309416
STARLINK-1307,45397,53.056,0.0001379,15.06392181,546.2805132799858,548.1905310215943,1 45397U 20019AP  25303.74241924  .00003666  00000+0  26491-3 0  9991,2 45397  53.0560   9.9733 0001379  96.4585 263.6561 15.06392181310242
STARLINK-1312,45398,53.041,0.0005166,15.99537879,272.26258991417035,279.1373342634015,1 45398U 20019AQ  25303.91668980  .00734580  25610-3  14430-2 0  9999,2 45398  53.0410 318.8961 0005166  26.5388  55.7065 15.99537879  6052
STARLINK-1255,45399,53.0503,0.0001382,15.29902308,475.1568120827724,477.05132431402217,1 45399U 20019AR  25302.90569350  .00014214  00000+0  49557-3 0  9995,2 45399  53.0503   1.5405 0001382  50.5176 309.5945 15.29902308310278
STARLINK-1260,45404,53.0555,0.0001372,15.06402283,546.254404018774,548.1547177430793,1 45404U 20019AW  25302.88081910  .00000988  00000+0  85204-4 0  9993,2 45404  53.0555   3.8378 0001372  78.4733 281.6410 15.06402283310148
STARLINK-1263,45405,53.056,0.0002058,15.06404028,545.7739785333442,548.624446918503,1 45405U 20019AX  25302.86608223 -.00002158  00000+0 -12597-3 0  9991,2 45405  53.0560   3.9070 0002058  85.7345 274.3879 15.06404028310144
STARLINK-1265,45406,53.0558,0.0001273,15.06412001,546.2931846567308,548.0563690351155,1 45406U 20019AY  25302.87344809  .00006899  00000+0  48142-3 0  9999,2 45406  53.0558   3.8756 0001273  87.9594 272.1541 15.06412001310142
STARLINK-1278,45408,53.0556,0.0001322,15.32737787,466.7431390225365,468.55316461667735,1 45408U 20019BA  25302.98434608  .00095033  00000+0  29382-2 0  9992,2 45408  53.0556  31.4656 0001322  16.4228 343.6815 15.32737787309779
STARLINK-1296,45412,53.0558,0.0001493,15.06418801,546.1199902436483,548.1878821171913,1 45412U 20019BE  25302.54540419  .00008729  00000+0  60388-3 0  9995,2 45412  53.0558   5.3478 0001493  97.2845 262.8313 15.06418801310095
STARLINK-1298,45413,53.0483,0.0008233,15.52345771,404.29056316409515,415.4677105350311,1 45413U 20019BF  25303.91668980  .00157870  00000+0  25015-2 0  9991,2 45413  53.0483 335.5103 0008233 309.9217 333.0937 15.52345771  5956
STARLINK-1309,45414,53.0551,0.0001378,15.06422765,546.1874839537932,548.0960907875924,1 45414U 20019BG  25302.56014505  .00012897  00000+0  88260-3 0  9991,2 45414  53.0551   5.2836 0001378  90.2492 269.8655 15.06422765310089
STARLINK-1316,45415,53.0555,0.0001384,15.06440109,546.1301811299973,548.0470835850329,1 45415U 20019BH  25303.31573975  .00009273  00000+0  63989-3 0  9992,2 45415  53.0555   1.8893 0001384  89.1257 270.9890 15.06440109310235
STARLINK-1318,45416,53.0526,0.0005148,15.60131919,383.792847213047,390.7585161100851,1 45416U 20019BJ  25303.27890795  .00060973  00000+0  73727-3 0  9995,2 45416  53.0526 330.1738 0005148  31.9165 328.2158 15.60131919310662
STARLINK-1286,45417,53.0602,0.0001208,15.32572674,467.31280367914314,468.96686416221746,1 45417U 20019BK  25303.91668980  .00783251  00000+0  22768-1 0  9994,2 45417  53.0602  27.6319 0001208  73.6569 182.8228 15.32572674  5743
STARLINK-1308,45419,53.0544,0.0001884,15.06393884,545.9255634610108,548.535041860654,1 45419U 20019BM  25302.95177874 -.00000158  00000+0  83124-5 0  9992,2 45419  53.0544  33.5200 0001884  95.5094 264.6110 15.06393884309764
STARLINK-1329,45531,53.0554,0.0001433,15.06397677,546.2262741392524,548.2110810764543,1 45531U 20025A   25303.31852878  .00000204  00000+0  32563-4 0  9990,2 45531  53.0554 331.8789 0001433  88.2525 271.8628 15.06397677305443
STARLINK-1338,45532,53.0559,0.0002287,15.06392729,545.6500102839955,548.8176749073991,1 45532U 20025B   25303.26324659 -.00001193  00000+0 -61189-4 0  9992,2 45532  53.0559 332.1236 0002287  80.9552 279.1696 15.06392729305435
STARLINK-1350,45535,53.0734,0.0001642,15.32207527,468.10316402532226,470.35183852754017,1 45535U 20025E   25303.24575958  .00016156  00000+0  52294-3 0  9992,2 45535  53.0734 284.0075 0001642  62.3364 297.7803 15.32207527306132
STARLINK-1362,45538,53.0564,0.0001544,15.06403349,546.1320215220821,548.2705659871935,1 45538U 20025H   25303.29543780  .00000568  00000+0  57048-4 0  9991,2 45538  53.0564 331.7002 0001544  98.5007 261.6157 15.06403349305448
STARLINK-1368,45540,53.0555,0.0001423,15.06399782,546.226748882088,548.1977032718305,1 45540U 20025K   25303.30009772  .00001143  00000+0  95590-4 0  9998,2 45540  53.0555 331.9601 0001423  97.6690 262.4461 15.06399782305433
STARLINK-1371,45542,53.0552,0.0001356,15.06395787,546.285391191228,548.1635492219475,1 45542U 20025M   25303.27062004  .00001340  00000+0  10886-3 0  9996,2 45542  53.0552 332.0919 0001356  85.9656 274.1488 15.06395787305433
STARLINK-1372,45543,53.0552,0.0001679,15.06393069,546.0700309469685,548.3955701259893,1 45543U 20025N   25303.30747257  .00000090  00000+0  24948-4 0  9997,2 45543  53.0552 331.9197 0001679 110.7295 249.3874 15.06393069304538
STARLINK-1373,45544,53.0545,0.0001258,15.06403127,546.3307665072789,548.0731817931737,1 45544U 20025P   25302.79512469 -.00000033  00000+0  16662-4 0  9997,2 45544  53.0545 334.2260 0001258  82.7587 277.3545 15.06403127305368
STARLINK-1294,45551,53.0483,0.000817,15.59267304,384.24701659621496,395.30578709483143,1 45551U 20025W   25303.14944760  .00148487  00000+0  18249-2 0  9994,2 45551  53.0483 266.2793 0008170  52.3748 307.8005 15.59267304306357
STARLINK-1325,45554,53.0549,0.0001615,15.60717203,384.49183829872254,386.67652023962637,1 45554U 20025Z   25303.91668980  .00302406  00000+0  34478-2 0  9994,2 45554  53.0549 255.4928 0001615 115.6730  49.1340 15.60717203  5965
STARLINK-1327,45555,53.0548,0.0001645,15.06390784,546.1005793107106,548.3790282791588,1 45555U 20025AA  25303.29826421 -.00000277  00000+0  28019-6 0  9992,2 45555  53.0548 311.9667 0001645  88.8444 271.2734 15.06390784305711
STARLINK-1356,45564,53.0562,0.0001575,15.06394107,546.1388739508857,548.3203644359328,1 45564U 20025AK  25303.30194931 -.00000487  00000+0 -13783-4 0  9992,2 45564  53.0562 311.9495 0001575 101.8256 258.2910 15.06394107305719
STARLINK-1357,45565,53.0611,0.0007296,15.31994424,464.8661727498111,474.8587735810552,1 45565U 20025AL  25303.67486933  .00103289  00000+0  32620-2 0  9990,2 45565  53.0611 295.4768 0007296 349.3913  10.6932 15.31994424305988
STARLINK-1361,45567,53.0545,0.0001286,15.06393503,546.3408679938148,548.1220727643959,1 45567U 20025AN  25303.25403072 -.00000075  00000+0  13836-4 0  9999,2 45567  53.0545 312.1647 0001286  82.8635 277.2500 15.06393503305718
STARLINK-1363,45568,53.0538,0.0001427,15.40658928,443.1898518017324,445.136936334201,1 45568U 20025AP  25303.91668980  .00126314  00000+0  30107-2 0  9996,2 45568  53.0538 306.9611 0001427  88.1453  16.3061 15.40658928  5834
STARLINK-1366,45569,53.053,0.0001497,15.39377612,446.92674300299495,448.9704730340354,1 45569U 20025AQ  25303.91668980  .00149119  00000+0  36945-2 0  9991,2 45569  53.0530 306.4037 0001497  81.9719 243.2253 15.39377612  5680
